IRIDIUM 155             
1 43573U 18061E   25308.52622003  .00000281  00000+0  93351-4 0  9991
2 43573  86.3976 150.6020 0001903  82.3485 277.7927 14.34216639381158
IRIDIUM 154             
1 43574U 18061F   25308.50720421  .00000061  00000+0  14734-4 0  9997
2 43574  86.3978 150.7321 0002111  87.4997 272.6440 14.34218068381200
IRIDIUM 163             
1 43575U 18061G   25308.48817571  .00000078  00000+0  20659-4 0  9999
2 43575  86.3975 150.6626 0002223  84.2853 275.8596 14.34218333381173
IRIDIUM 156             
1 43576U 18061H   25308.53257362 -.00000008  00000+0 -97566-5 0  9999
2 43576  86.3977 150.6509 0001706  83.5612 276.5778 14.34217586381175
IRIDIUM 164             
1 43577U 18061J   25308.51354622  .00000054  00000+0  12136-4 0  9993
2 43577  86.3977 150.6959 0002022  92.7277 267.4150 14.34218069381211
IRIDIUM 159             
1 43578U 18061K   25308.55160164  .00000054  00000+0  12144-4 0  9993
2 43578  86.3975 150.6214 0002264  88.4691 271.6764 14.34218217381183
IRIDIUM 180             
1 43922U 19002A   25308.62086764  .00000025  00000+0  18158-5 0  9993
2 43922  86.3937  87.4783 0002096  89.2519 270.8917 14.34216705356805
IRIDIUM 176             
1 43923U 19002B   25308.45775455  .00001323  00000+0  20589-3 0  9998
2 43923  86.6061  87.5225 0001735  78.4747 281.6665 14.72253847366183
IRIDIUM 168             
1 43924U 19002C   25308.47498814  .00000126  00000+0  38030-4 0  9993
2 43924  86.3939  87.6103 0002122  91.0956 269.0483 14.34217717356760
IRIDIUM 173             
1 43925U 19002D   25308.46230314  .00000030  00000+0  36190-5 0  9992
2 43925  86.3935  87.5133 0002129  87.8224 272.3216 14.34217204356747
IRIDIUM 169             
1 43926U 19002E   25308.44799323  .00000134  00000+0  37278-4 0  9993
2 43926  86.4193 119.1699 0001873  54.1573 305.9799 14.38607322357910
IRIDIUM 172             
1 43927U 19002F   25308.45596077 -.00000042  00000+0 -22069-4 0  9998
2 43927  86.3939  87.5237 0002213  92.1061 268.0388 14.34217062356755
IRIDIUM 175             
1 43928U 19002G   25308.52092845  .00001313  00000+0  20431-3 0  9991
2 43928  86.1537  32.0527 0001750 113.5628 246.5773 14.72243223366184
IRIDIUM 171             
1 43929U 19002H   25308.64623821  .00000355  00000+0  11962-3 0  9993
2 43929  86.3947  87.7256 0001817  97.8834 262.2568 14.34217747356776
IRIDIUM 170             
1 43930U 19002J   25308.32798738  .00001306  00000+0  20315-3 0  9999
2 43930  86.6060  87.5805 0002282  90.3632 269.7847 14.72259675366171
IRIDIUM 167             
1 43931U 19002K   25308.43058914 -.00000021  00000+0 -14662-4 0  9991
2 43931  86.3937  87.5548 0001488  94.7624 265.3742 14.34217122356749
IRIDIUM 181             
1 56726U 23068S   25308.54860307  .00000372  00000+0  10455-3 0  9995
2 56726  86.4515 150.6764 0002126 102.8859 257.2580 14.43324549130035
IRIDIUM 177             
1 56727U 23068T   25308.61484617  .00001743  00000+0  22592-3 0  9998
2 56727  86.1951  75.4334 0002139  85.8504 274.2962 14.80232382133147
IRIDIUM 174             
1 56728U 23068U   25308.38360085  .00001341  00000+0  20873-3 0  9999
2 56728  86.6069  87.6822 0002574  84.5694 275.5816 14.72256225132941
IRIDIUM 178             
1 56729U 23068V   25308.60394060  .00000579  00000+0  72794-4 0  9997
2 56729  86.6509 119.2359 0001942  89.9207 270.2237 14.80234564133148
IRIDIUM 179             
1 56730U 23068W   25308.46335898  .00000416  00000+0  51300-4 0  9997
2 56730  86.6765 127.6007 0001631  96.2925 263.8482 14.80235128133125
